{
 "type": "FeatureCollection",
 "features": [
  {
   "type": "Feature",
   "properties": {
    "name": "F1"
   },
   "geometry": {
    "type": "Polygon",
    "coordinates": [
     [
      [
       501700,
       6699200
      ],
      [
       501800,
       6699200
      ],
      [
       501900,
       6700800
      ],
      [
       501800,
       6700800
      ],
      [
       501700,
       6699200
      ]
     ]
    ]
   }
  },
  {
   "type": "Feature",
   "properties": {
    "name": "F2"
   },
   "geometry": {
    "type": "Polygon",
    "coordinates": [
     [
      [
       502300,
       6699300
      ],
      [
       502380,
       6699300
      ],
      [
       502480,
       6700700
      ],
      [
       502400,
       6700700
      ],
      [
       502300,
       6699300
      ]
     ]
    ]
   }
  }
 ]
}
